38041,GLOBALSTAR M080,2011,114.08,700.0,+,52.01,Active,1,LEO,Kazakhstan,Globalstar,Commercial,Communications,Soyuz,1 38041U 11080B   24217.96676258 -.00000063  00000+0  22793-3 0  9996,2 38041  52.0066 292.6628 0000750  86.7292  85.0891 12.62263533582850,12.62263533,7.5e-05,LEO
38042,GLOBALSTAR M082,2011,114.08,700.0,+,52.01,Active,1,LEO,Kazakhstan,Globalstar,Commercial,Communications,Soyuz,1 38042U 11080C   24218.18621259 -.00000085  00000+0  10580-3 0  9998,2 38042  52.0054 247.4068 0000606 192.4934 196.9955 12.62264764583763,12.62264764,6.06e-05,LEO
38043,GLOBALSTAR M092,2011,114.08,700.0,+,52.01,Active,1,LEO,Kazakhstan,Globalstar,Commercial,Communications,Soyuz,1 38043U 11080D   24218.11190529 -.00000082  00000+0  12424-3 0  9999,2 38043  52.0108 337.9914 0000849 108.5305  63.3243 12.62264619582246,12.62264619,8.49e-05,LEO
38044,GLOBALSTAR M090,2011,114.08,700.0,+,51.99,Active,1,LEO,Kazakhstan,Globalstar,Commercial,Communications,Soyuz,1 38044U 11080E   24217.84796021 -.00000076  00000+0  15602-3 0  9992,2 38044  51.9863 242.6528 0000308 184.4890 346.8556 12.62265830583667,12.6226583,3.08e-05,LEO
38045,GLOBALSTAR M086,2011,114.08,700.0,+,51.99,Active,1,LEO,Kazakhstan,Globalstar,Commercial,Communications,Soyuz,1 38045U 11080F   24218.15986486 -.00000085  00000+0  10584-3 0  9998,2 38045  51.9873 242.2283 0000727 345.6607  44.4733 12.62265167583756,12.62265167,7.27e-05,LEO
39073,GLOBALSTAR M093,2013,114.08,700.0,+,51.98,Active,1,LEO,Kazakhstan,Globalstar,Commercial,Communications,Soyuz,1 39073U 13005B   24218.15319079 -.00000103  00000+0  60531-5 0  9997,2 39073  51.9801 150.2807 0000451 353.4660   6.6201 12.62276456530978,12.62276456,4.51e-05,LEO
